INMARSAT GX5            
1 44801U 19080B   26095.22822667  .00000076  00000+0  00000+0 0  9993
2 44801   0.0612  38.6391 0002018 351.8073 256.2462  1.00273212  6052
JCSAT-18 (KACIFIC 1)    
1 44868U 19091A   26095.22197291 -.00000200  00000+0  00000+0 0  9996
2 44868   0.0396 355.2927 0000344  82.3218 345.8206  1.00271098 23278
ELEKTRO-L 3             
1 44903U 19095A   26094.97564484 -.00000095  00000+0  00000+0 0  9995
2 44903   0.0753  61.4371 0001391 306.4789 252.5355  1.00272372 22971
SHIJIAN-20 (SJ-20)      
1 44910U 19097A   26094.78495895  .00000110  00000+0  00000+0 0  9990
2 44910   4.7304  75.9451 0002999  16.0876  78.4415  1.00087812 22961
TJS-5                   
1 44978U 20002A   26094.83930993 -.00000342  00000+0  00000+0 0  9999
2 44978   0.1984 269.7875 0005511 124.4959 208.5315  1.00270451 22969
GSAT-30                 
1 45026U 20005A   26095.11967902 -.00000164  00000+0  00000+0 0  9991
2 45026   0.0724  82.6022 0002124 348.1205 248.7748  1.00272565 22770
EUTELSAT KONNECT        
1 45027U 20005B   26095.22822667  .00000051  00000+0  00000+0 0  9996
2 45027   0.0696  94.0317 0001244 221.8750 327.0030  1.00272881 23606
JCSAT-17                
1 45245U 20013A   26095.26934897 -.00000317  00000+0  00000+0 0  9996
2 45245   5.3944 356.1523 0004429  16.5272  53.8398  1.00272261 22500
GEO-KOMPSAT-2B          
1 45246U 20013B   26095.22475360 -.00000343  00000+0  00000+0 0  9997
2 45246   0.0441 345.1815 0001221 354.3552  63.1591  1.00273209 22544
BEIDOU-3 G2             
1 45344U 20017A   26095.12316836 -.00000138  00000+0  00000+0 0  9993
2 45344   2.7181  46.1506 0002845 336.9903 294.6728  1.00272116 22524
BEIDOU-3 G3             
1 45807U 20040A   26095.26770332 -.00000351  00000+0  00000+0 0  9990
2 45807   2.2687  67.2270 0004580 328.5008   4.7695  1.00269679 21338
APSTAR-6D               
1 45863U 20045A   26093.48976877 -.00000321  00000+0  00000+0 0  9998
2 45863   0.0470 103.0436 0002660 345.0952  53.9599  1.00266278 21115
KOREASAT 116            
1 45920U 20048A   26095.05493875  .00000000  00000+0  00000+0 0  9995
2 45920   0.0115 198.2605 0001196 207.8107 283.2843  1.00268559 20909
EXPRESS 103             
1 45985U 20053A   26092.04330780 -.00000288  00000+0  00000+0 0  9992
2 45985   0.0224 258.5231 0000849  21.4282  22.5300  1.00272930 20881
BSAT-4B                 
1 46112U 20056A   26095.01311756 -.00000349  00000+0  00000+0 0  9998
2 46112   0.0750 110.2603 0002672 336.7145 220.9021  1.00271287 20654
MEV-2                   
1 46113U 20056B   26095.24560322 -.00000010  00000+0  00000+0 0  9994
2 46113   0.0402  43.8323 0001985  32.9198 204.2058  1.00272320 79847
GALAXY 30 (G-30)        
1 46114U 20056C   26094.93579735  .00000000  00000+0  00000+0 0  9996
2 46114   0.0165 201.4199 0002457 199.6088   4.1053  1.00272177 20557
